{
  "type": "FeatureCollection",
  "features": [
    {
      "type": "Feature",
      "properties": {
        "norad_id": 66802,
        "name": "STARLINK-35604",
        "group": "last-30-days",
        "lat": 40.687066273903895,
        "lon": -37.51038139403614,
        "alt_km": 301.807663734523,
        "timestamp": "2025-12-12T05:47:27.526997+00:00",
        "meta_object_name": "STARLINK-35604",
        "meta_object_id": "2025-278M",
        "meta_epoch": "2025-12-11T20:00:01.999872",
        "meta_mean_motion": 15.89439584,
        "meta_eccentricity": 0.00017898,
        "meta_inclination": 42.9977,
        "meta_ra_of_asc_node": 257.6897,
        "meta_arg_of_pericenter": 257.0797,
        "meta_mean_anomaly": 359.6735,
        "meta_ephemeris_type": 0,
        "meta_classification_type": "U",
        "meta_norad_cat_id": 66802,
        "meta_element_set_no": 999,
        "meta_rev_at_epoch": 281,
        "meta_bstar": -0.0045762488,
        "meta_mean_motion_dot": -0.01231215,
        "meta_mean_motion_ddot": 0,
        "tle_line1": "1 66802U 25278M   25345.83335648 -.01231215  00000+0 -45762-2 0  9997",
        "tle_line2": "2 66802  42.9977 257.6897 0001789 257.0797 359.6735 15.89439584  2813"
      },
      "geometry": {
        "type": "Point",
        "coordinates": [
          -37.51038139403614,
          40.687066273903895
        ]
      }
    },
    {
      "type": "Feature",
      "properties": {
        "norad_id": 66803,
        "name": "STARLINK-35565",
        "group": "last-30-days",
        "lat": 41.74088793622515,
        "lon": -31.59149371223533,
        "alt_km": 301.56773623739446,
        "timestamp": "2025-12-12T05:47:27.527007+00:00",
        "meta_object_name": "STARLINK-35565",
        "meta_object_id": "2025-278N",
        "meta_epoch": "2025-12-11T20:00:01.999872",
        "meta_mean_motion": 15.89490265,
        "meta_eccentricity": 0.0001825,
        "meta_inclination": 42.9976,
        "meta_ra_of_asc_node": 257.6783,
        "meta_arg_of_pericenter": 255.9827,
        "meta_mean_anomaly": 5.283,
        "meta_ephemeris_type": 0,
        "meta_classification_type": "U",
        "meta_norad_cat_id": 66803,
        "meta_element_set_no": 999,
        "meta_rev_at_epoch": 290,
        "meta_bstar": -0.0046108332,
        "meta_mean_motion_dot": -0.01242379,
        "meta_mean_motion_ddot": 0,
        "tle_line1": "1 66803U 25278N   25345.83335648 -.01242379  00000+0 -46108-2 0  9996",
        "tle_line2": "2 66803  42.9976 257.6783 0001825 255.9827   5.2830 15.89490265  2902"
      },
      "geometry": {
        "type": "Point",
        "coordinates": [
          -31.59149371223533,
          41.74088793622515
        ]
      }
    },
    {
      "type": "Feature",
      "properties": {
        "norad_id": 66804,
        "name": "STARLINK-36038",
        "group": "last-30-days",
        "lat": 42.19773142270367,
        "lon": -28.178501111034194,
        "alt_km": 301.4767292465949,
        "timestamp": "2025-12-12T05:47:27.527016+00:00",
        "meta_object_name": "STARLINK-36038",
        "meta_object_id": "2025-278P",
        "meta_epoch": "2025-12-11T20:00:01.999872",
        "meta_mean_motion": 15.89512076,
        "meta_eccentricity": 0.00018464,
        "meta_inclination": 42.9977,
        "meta_ra_of_asc_node": 257.672,
        "meta_arg_of_pericenter": 258.4447,
        "meta_mean_anomaly": 5.3747,
        "meta_ephemeris_type": 0,
        "meta_classification_type": "U",
        "meta_norad_cat_id": 66804,
        "meta_element_set_no": 999,
        "meta_rev_at_epoch": 281,
        "meta_bstar": -0.0046435934,
        "meta_mean_motion_dot": -0.01251476,
        "meta_mean_motion_ddot": 0,
        "tle_line1": "1 66804U 25278P   25345.83335648 -.01251476  00000+0 -46436-2 0  9999",
        "tle_line2": "2 66804  42.9977 257.6720 0001846 258.4447   5.3747 15.89512076  2817"
      },
      "geometry": {
        "type": "Point",
        "coordinates": [
          -28.178501111034194,
          42.19773142270367
        ]
      }
    },
    {
      "type": "Feature",
      "properties": {
        "norad_id": 66805,
        "name": "STARLINK-36049",
        "group": "last-30-days",
        "lat": 42.74339368519563,
        "lon": -22.174292673576794,
        "alt_km": 301.2610183775214,
        "timestamp": "2025-12-12T05:47:27.527029+00:00",
        "meta_object_name": "STARLINK-36049",
        "meta_object_id": "2025-278Q",
        "meta_epoch": "2025-12-11T20:00:01.999872",
        "meta_mean_motion": 15.89564867,
        "meta_eccentricity": 0.00018333,
        "meta_inclination": 42.9975,
        "meta_ra_of_asc_node": 257.6605,
        "meta_arg_of_pericenter": 258.3771,
        "meta_mean_anomaly": 9.8372,
        "meta_ephemeris_type": 0,
        "meta_classification_type": "U",
        "meta_norad_cat_id": 66805,
        "meta_element_set_no": 999,
        "meta_rev_at_epoch": 281,
        "meta_bstar": -0.0046716325,
        "meta_mean_motion_dot": -0.012612,
        "meta_mean_motion_ddot": 0,
        "tle_line1": "1 66805U 25278Q   25345.83335648 -.01261200  00000+0 -46716-2 0  9997",
        "tle_line2": "2 66805  42.9975 257.6605 0001833 258.3771   9.8372 15.89564867  2811"
      },
      "geometry": {
        "type": "Point",
        "coordinates": [
          -22.174292673576794,
          42.74339368519563
        ]
      }
    },
    {
      "type": "Feature",
      "properties": {
        "norad_id": 66806,
        "name": "STARLINK-36069",
        "group": "last-30-days",
        "lat": 42.47683492030635,
        "lon": -25.54878621135518,
        "alt_km": 301.33893993450147,
        "timestamp": "2025-12-12T05:47:27.527041+00:00",
        "meta_object_name": "STARLINK-36069",
        "meta_object_id": "2025-278R",
        "meta_epoch": "2025-12-11T20:00:01.999872",
        "meta_mean_motion": 15.89542432,
        "meta_eccentricity": 0.00018219,
        "meta_inclination": 42.9978,
        "meta_ra_of_asc_node": 257.6671,
        "meta_arg_of_pericenter": 256.5209,
        "meta_mean_anomaly": 9.2226,
        "meta_ephemeris_type": 0,
        "meta_classification_type": "U",
        "meta_norad_cat_id": 66806,
        "meta_element_set_no": 999,
        "meta_rev_at_epoch": 260,
        "meta_bstar": -0.0046503145,
        "meta_mean_motion_dot": -0.01254801,
        "meta_mean_motion_ddot": 0,
        "tle_line1": "1 66806U 25278R   25345.83335648 -.01254801  00000+0 -46503-2 0  9991",
        "tle_line2": "2 66806  42.9978 257.6671 0001821 256.5209   9.2226 15.89542432  2604"
      },
      "geometry": {
        "type": "Point",
        "coordinates": [
          -25.54878621135518,
          42.47683492030635
        ]
      }
    },
    {
      "type": "Feature",
      "properties": {
        "norad_id": 66807,
        "name": "STARLINK-36000",
        "group": "last-30-days",
        "lat": 42.971541973740955,
        "lon": -15.954537645900317,
        "alt_km": 301.1478740497769,
        "timestamp": "2025-12-12T05:47:27.527053+00:00",
        "meta_object_name": "STARLINK-36000",
        "meta_object_id": "2025-278S",
        "meta_epoch": "2025-12-11T20:00:01.999872",
        "meta_mean_motion": 15.89616008,
        "meta_eccentricity": 0.00018889,
        "meta_inclination": 42.9977,
        "meta_ra_of_asc_node": 257.6494,
        "meta_arg_of_pericenter": 258.9778,
        "meta_mean_anomaly": 13.7383,
        "meta_ephemeris_type": 0,
        "meta_classification_type": "U",
        "meta_norad_cat_id": 66807,
        "meta_element_set_no": 999,
        "meta_rev_at_epoch": 287,
        "meta_bstar": -0.0047135413,
        "meta_mean_motion_dot": -0.01274226,
        "meta_mean_motion_ddot": 0,
        "tle_line1": "1 66807U 25278S   25345.83335648 -.01274226  00000+0 -47135-2 0  9997",
        "tle_line2": "2 66807  42.9977 257.6494 0001888 258.9778  13.7383 15.89616008  2871"
      },
      "geometry": {
        "type": "Point",
        "coordinates": [
          -15.954537645900317,
          42.971541973740955
        ]
      }
    },
    {
      "type": "Feature",
      "properties": {
        "norad_id": 66808,
        "name": "STARLINK-36071",
        "group": "last-30-days",
        "lat": 42.96113018377081,
        "lon": -12.993173751745031,
        "alt_km": 301.02364741618567,
        "timestamp": "2025-12-12T05:47:27.527063+00:00",
        "meta_object_name": "STARLINK-36071",
        "meta_object_id": "2025-278T",
        "meta_epoch": "2025-12-11T20:00:01.999872",
        "meta_mean_motion": 15.89642217,
        "meta_eccentricity": 0.00018222,
        "meta_inclination": 42.9978,
        "meta_ra_of_asc_node": 257.6437,
        "meta_arg_of_pericenter": 256.7346,
        "meta_mean_anomaly": 18.1161,
        "meta_ephemeris_type": 0,
        "meta_classification_type": "U",
        "meta_norad_cat_id": 66808,
        "meta_element_set_no": 999,
        "meta_rev_at_epoch": 281,
        "meta_bstar": -0.0047257519,
        "meta_mean_motion_dot": -0.01278624,
        "meta_mean_motion_ddot": 0,
        "tle_line1": "1 66808U 25278T   25345.83335648 -.01278624  00000+0 -47258-2 0  9990",
        "tle_line2": "2 66808  42.9978 257.6437 0001822 256.7346  18.1161 15.89642217  2813"
      },
      "geometry": {
        "type": "Point",
        "coordinates": [
          -12.993173751745031,
          42.96113018377081
        ]
      }
    }
  ]
}